H1 CPF  1  DLR 2022 03 18 10  5772 technosat            
H2  1704205 6203    42829 2022 03 18 00 00 00 2022 03 25 00 00 00    60 1 1  0 0 0
H9
10 0 59662  36000.000000  0       1517237.727        164756.185      -6800975.341
10 0 59662  36060.000000  0       1897030.613        -71783.406      -6706457.931
10 0 59662  36120.000000  0       2266779.972       -311300.983      -6583591.964
10 0 59662  36180.000000  0       2624910.201       -552696.316      -6432889.185
10 0 59662  36240.000000  0       2969903.046       -794847.149      -6254978.415
10 0 59662  36300.000000  0       3300304.005      -1036614.301      -6050603.089
10 0 59662  36360.000000  0       3614728.500      -1276846.895      -5820618.483
10 0 59662  36420.000000  0       3911867.872      -1514387.810      -5565988.502
10 0 59662  36480.000000  0       4190495.048      -1748079.267      -5287781.875
10 0 59662  36540.000000  0       4449469.807      -1976768.471      -4987167.899
10 0 59662  36600.000000  0       4687743.676      -2199313.286      -4665411.751
10 0 59662  36660.000000  0       4904364.410      -2414587.949      -4323869.367
10 0 59662  36720.000000  0       5098480.071      -2621488.767      -3963981.921
10 0 59662  36780.000000  0       5269342.674      -2818939.791      -3587269.877
10 0 59662  36840.000000  0       5416311.370      -3005898.420      -3195326.642
10 0 59662  36900.000000  0       5538855.130      -3181360.916      -2789811.834
10 0 59662  36960.000000  0       5636554.878      -3344367.771      -2372444.178
10 0 59662  37020.000000  0       5709105.059      -3494008.889      -1944994.163
10 0 59662  37080.000000  0       5756314.741      -3629428.611      -1509276.452
10 0 59662  37140.000000  0       5778108.146      -3749830.530      -1067141.971
10 0 59662  37200.000000  0       5774524.548      -3854482.007       -620469.811
10 0 59662  37260.000000  0       5745717.670      -3942718.366       -171159.034
10 0 59662  37320.000000  0       5691954.516      -4013946.838        278879.687
10 0 59662  37380.000000  0       5613613.588      -4067650.159        727732.490
10 0 59662  37440.000000  0       5511182.578      -4103389.807       1173490.766
10 0 59662  37500.000000  0       5385255.505      -4120808.782       1614259.637
10 0 59662  37560.000000  0       5236529.294      -4119633.930       2048166.275
10 0 59662  37620.000000  0       5065799.887      -4099677.880       2473368.049
10 0 59662  37680.000000  0       4873957.927      -4060840.601       2888060.529
10 0 59662  37740.000000  0       4661983.997      -4003110.478       3290485.301
10 0 59662  37800.000000  0       4430943.499      -3926564.954       3678937.515
10 0 59662  37860.000000  0       4181981.155      -3831370.794       4051773.188
10 0 59662  37920.000000  0       3916315.117      -3717783.887       4407416.235
10 0 59662  37980.000000  0       3635230.723      -3586148.550       4744365.107
10 0 59662  38040.000000  0       3340074.066      -3436896.382       5061198.966
10 0 59662  38100.000000  0       3032245.426      -3270544.767       5356583.519
10 0 59662  38160.000000  0       2713192.479      -3087694.951       5629276.525
10 0 59662  38220.000000  0       2384403.303      -2889029.699       5878132.787
10 0 59662  38280.000000  0       2047399.303      -2675310.608       6102108.695
10 0 59662  38340.000000  0       1703728.095      -2447375.055       6300266.309
10 0 59662  38400.000000  0       1354956.369      -2206132.821       6471777.012
10 0 59662  38460.000000  0       1002662.709      -1952562.353       6615924.730
10 0 59662  38520.000000  0        648430.459      -1687706.713       6732108.632
10 0 59662  38580.000000  0        293840.671      -1412669.264       6819845.387
10 0 59662  38640.000000  0        -59534.883      -1128609.026       6878770.991
10 0 59662  38700.000000  0       -410140.588       -836735.772       6908642.040
10 0 59662  38760.000000  0       -756443.703       -538304.951       6909336.623
10 0 59662  38820.000000  0      -1096940.975       -234612.324       6880854.759
10 0 59662  38880.000000  0      -1430165.075         73011.606       6823318.328
10 0 59662  38940.000000  0      -1754690.807        383207.350       6736970.559
10 0 59662  39000.000000  0      -2069141.124        694592.352       6622175.066
10 0 59662  39060.000000  0      -2372192.925       1005767.065       6479414.411
10 0 59662  39120.000000  0      -2662582.568       1315321.142       6309288.203
10 0 59662  39180.000000  0      -2939111.119       1621839.746       6112510.788
10 0 59662  39240.000000  0      -3200649.328       1923909.946       5889908.482
10 0 59662  39300.000000  0      -3446142.325       2220127.195       5642416.367
10 0 59662  39360.000000  0      -3674613.966       2509101.868       5371074.573
10 0 59662  39420.000000  0      -3885170.819       2789465.778       5077024.118
10 0 59662  39480.000000  0      -4077005.767       3059878.652       4761502.338
10 0 59662  39540.000000  0      -4249401.274       3319034.577       4425837.909
10 0 59662  39600.000000  0      -4401732.230       3565668.352       4071445.419
10 0 59662  39660.000000  0      -4533468.354       3798561.719       3699819.582
10 0 59662  39720.000000  0      -4644176.183       4016549.469       3312529.020
10 0 59662  39780.000000  0      -4733520.551       4218525.330       2911209.740
10 0 59662  39840.000000  0      -4801265.649       4403447.724       2497558.294
10 0 59662  39900.000000  0      -4847275.602       4570345.227       2073324.561
10 0 59662  39960.000000  0      -4871514.535       4718321.697       1640304.266
10 0 59662  40020.000000  0      -4874046.185       4846561.054       1200331.278
10 0 59662  40080.000000  0      -4855033.041       4954331.708        755269.739
10 0 59662  40140.000000  0      -4814735.020       5040990.634        307006.041
10 0 59662  40200.000000  0      -4753507.692       5105987.075       -142559.344
10 0 59662  40260.000000  0      -4671800.051       5148865.842       -591520.167
10 0 59662  40320.000000  0      -4570151.734       5169270.115      -1037972.856
10 0 59662  40380.000000  0      -4449189.633       5166943.597      -1480024.824
10 0 59662  40440.000000  0      -4309624.322       5141732.329      -1915802.534
10 0 59662  40500.000000  0      -4152246.143       5093586.070      -2343459.716
10 0 59662  40560.000000  0      -3977920.798       5022559.024      -2761185.413
10 0 59662  40620.000000  0      -3787584.590       4928810.085      -3167211.777
10 0 59662  40680.000000  0      -3582239.365       4812602.554      -3559821.616
10 0 59662  40740.000000  0      -3362947.213       4674303.383      -3937355.641
10 0 59662  40800.000000  0      -3130824.942       4514381.936      -4298219.470
10 0 59662  40860.000000  0      -2887038.316       4333408.238      -4640890.263
10 0 59662  40920.000000  0      -2632796.185       4132050.838      -4963922.958
10 0 59662  40980.000000  0      -2369344.501       3911074.251      -5265956.260
10 0 59662  41040.000000  0      -2097960.182       3671335.909      -5545718.258
10 0 59662  41100.000000  0      -1819944.890       3413782.665      -5802031.618
10 0 59662  41160.000000  0      -1536618.771       3139446.888      -6033818.357
10 0 59662  41220.000000  0      -1249314.167       2849442.161      -6240104.152
10 0 59662  41280.000000  0       -959369.361       2544958.623      -6420022.169
10 0 59662  41340.000000  0       -668122.402       2227258.051      -6572816.436
10 0 59662  41400.000000  0       -376904.981       1897668.611      -6697844.835
10 0 59662  41460.000000  0        -87036.437       1557579.253      -6794581.590
10 0 59662  41520.000000  0        200182.086       1208433.907      -6862619.328
10 0 59662  41580.000000  0        483473.423        851725.445      -6901670.740
10 0 59662  41640.000000  0        761590.049        488989.364      -6911569.770
10 0 59662  41700.000000  0       1033319.538        121797.196      -6892272.271
10 0 59662  41760.000000  0       1297489.769       -248250.234      -6843856.149
10 0 59662  41820.000000  0       1552973.920       -619529.666      -6766521.062
10 0 59662  41880.000000  0       1798695.196       -990402.393      -6660587.722
10 0 59662  41940.000000  0       2033631.374      -1359221.413      -6526496.770
10 0 59662  42000.000000  0       2256819.108      -1724338.662      -6364807.080
10 0 59662  42060.000000  0       2467357.866      -2084112.251      -6176193.657
10 0 59662  42120.000000  0       2664413.620      -2436913.816      -5961445.191
10 0 59662  42180.000000  0       2847222.293      -2781135.974      -5721461.103
10 0 59662  42240.000000  0       3015092.877      -3115199.801      -5457248.021
10 0 59662  42300.000000  0       3167410.173      -3437562.202      -5169915.706
10 0 59662  42360.000000  0       3303637.097      -3746723.108      -4860672.544
10 0 59662  42420.000000  0       3423316.631      -4041232.535      -4530820.687
10 0 59662  42480.000000  0       3526073.417      -4319697.518      -4181750.823
10 0 59662  42540.000000  0       3611615.010      -4580788.904      -3814936.512
10 0 59662  42600.000000  0       3679732.743      -4823247.899      -3431928.121
10 0 59662  42660.000000  0       3730302.213      -5045892.436      -3034346.375
10 0 59662  42720.000000  0       3763283.286      -5247623.241      -2623875.458
10 0 59662  42780.000000  0       3778719.645      -5427429.453      -2202255.769
10 0 59662  42840.000000  0       3776737.971      -5584393.820      -1771276.460
10 0 59662  42900.000000  0       3757546.735      -5717697.578      -1332767.733
10 0 59662  42960.000000  0       3721434.550      -5826624.892       -888592.827
10 0 59662  43020.000000  0       3668768.073      -5910566.729       -440639.817
10 0 59662  43080.000000  0       3599989.515      -5969024.230          9186.664
10 0 59662  43140.000000  0       3515613.760      -6001611.556        458973.768
99
